STARLINK-36411          
1 67608U 26018V   26049.14330397  .00034326  00000+0  17935-3 0  9990
2 67608  97.2839 114.0265 0001375  62.7878 297.3530 15.80802246  4234
STARLINK-36312          
1 67609U 26018W   26049.16668981 -.00043666  00000+0 -29305-3 0  9999
2 67609  97.2839 114.0515 0001246  75.4692  46.9258 15.75216130  4268
STARLINK-36387          
1 67610U 26018X   26049.14066749  .00195719  00000+0  99621-3 0  9996
2 67610  97.2839 114.0306 0001613  91.2908 268.8545 15.80894126  4236
STARLINK-36636          
1 67611U 26018Y   26049.13959210  .00270364  00000+0  13621-2 0  9995
2 67611  97.2868 114.0246 0000808  96.8492 263.2869 15.80926050  4236
STARLINK-36407          
1 67612U 26018Z   26049.16668981 -.01912057  00000+0 -13111-1 0  9999
2 67612  97.2840 114.0637 0001970  70.8510  84.6539 15.77802485  4314
STARLINK-36597          
1 67613U 26018AA  26049.13765933  .00139540  00000+0  71586-3 0  9999
2 67613  97.2837 114.0341 0001301  81.9960 278.1456 15.80870518  4238
NEONSAT-1A              
1 67614U 26019A   26048.86904144  .00003467  00000+0  23135-3 0  9994
2 67614  97.4103 173.1592 0012087 238.6168 121.3879 15.07621014  2831
ELECTRON KICK STAGE R/B 
1 67616U 26019C   26048.76223128  .00433789  56734-4  18991-2 0  9998
2 67616  97.4041 174.5200 0168277 194.7657 164.8658 15.66392022  2918
STARLINK-36548          
1 67617U 26020A   26048.97674939  .00251571  00000+0  14997-2 0  9993
2 67617  42.9968 262.0913 0002073 283.0775  76.9863 15.76407503  2979
STARLINK-36601          
1 67618U 26020B   26049.01069280  .00256594  00000+0  11818-2 0  9996
2 67618  42.9964 261.4679 0002353 236.7325 123.3321 15.82078652  2988
STARLINK-36119          
1 67619U 26020C   26049.03791792  .00240127  00000+0  14320-2 0  9995
2 67619  42.9969 261.6876 0001947 258.7078 101.3573 15.76432021  2984
STARLINK-36607          
1 67620U 26020D   26048.94583094  .00639263  00000+0  27681-2 0  9997
2 67620  42.9966 261.8408 0002739 285.0564  75.0004 15.82415698  2972
