CCSDS_OMM_VERS = 2.0
CREATION_DATE  = 
ORIGINATOR     = 

OBJECT_NAME    = STARLINK-36411
OBJECT_ID      = 2026-018V
CENTER_NAME    = EARTH
REF_FRAME      = TEME
TIME_SYSTEM    = UTC
MEAN_ELEMENT_THEORY = SGP/SGP4

EPOCH          = 2026-02-18T03:26:21.463008
MEAN_MOTION    = 15.80802246
ECCENTRICITY   = .0001375
INCLINATION    = 97.2839
RA_OF_ASC_NODE = 114.0265
ARG_OF_PERICENTER = 62.7878
MEAN_ANOMALY   = 297.3530

EPHEMERIS_TYPE = 0
CLASSIFICATION_TYPE = U
NORAD_CAT_ID   = 67608
ELEMENT_SET_NO = 999
REV_AT_EPOCH   = 423
BSTAR          = .17935E-3
MEAN_MOTION_DOT = .34326E-3
MEAN_MOTION_DDOT = 0

CCSDS_OMM_VERS = 2.0
CREATION_DATE  = 
ORIGINATOR     = 

OBJECT_NAME    = STARLINK-36312
OBJECT_ID      = 2026-018W
CENTER_NAME    = EARTH
REF_FRAME      = TEME
TIME_SYSTEM    = UTC
MEAN_ELEMENT_THEORY = SGP/SGP4

EPOCH          = 2026-02-18T04:00:01.999584
MEAN_MOTION    = 15.75216130
ECCENTRICITY   = .0001246
INCLINATION    = 97.2839
RA_OF_ASC_NODE = 114.0515
ARG_OF_PERICENTER = 75.4692
MEAN_ANOMALY   = 46.9258

EPHEMERIS_TYPE = 0
CLASSIFICATION_TYPE = U
NORAD_CAT_ID   = 67609
ELEMENT_SET_NO = 999
REV_AT_EPOCH   = 426
BSTAR          = -.29305E-3
MEAN_MOTION_DOT = -.43666E-3
MEAN_MOTION_DDOT = 0

CCSDS_OMM_VERS = 2.0
CREATION_DATE  = 
ORIGINATOR     = 

OBJECT_NAME    = STARLINK-36387
OBJECT_ID      = 2026-018X
CENTER_NAME    = EARTH
REF_FRAME      = TEME
TIME_SYSTEM    = UTC
MEAN_ELEMENT_THEORY = SGP/SGP4

EPOCH          = 2026-02-18T03:22:33.671136
MEAN_MOTION    = 15.80894126
ECCENTRICITY   = .0001613
INCLINATION    = 97.2839
RA_OF_ASC_NODE = 114.0306
ARG_OF_PERICENTER = 91.2908
MEAN_ANOMALY   = 268.8545

EPHEMERIS_TYPE = 0
CLASSIFICATION_TYPE = U
NORAD_CAT_ID   = 67610
ELEMENT_SET_NO = 999
REV_AT_EPOCH   = 423
BSTAR          = .99621E-3
MEAN_MOTION_DOT = .195719E-2
MEAN_MOTION_DDOT = 0

CCSDS_OMM_VERS = 2.0
CREATION_DATE  = 
ORIGINATOR     = 

OBJECT_NAME    = STARLINK-36636
OBJECT_ID      = 2026-018Y
CENTER_NAME    = EARTH
REF_FRAME      = TEME
TIME_SYSTEM    = UTC
MEAN_ELEMENT_THEORY = SGP/SGP4

EPOCH          = 2026-02-18T03:21:00.757440
MEAN_MOTION    = 15.80926050
ECCENTRICITY   = .0000808
INCLINATION    = 97.2868
RA_OF_ASC_NODE = 114.0246
ARG_OF_PERICENTER = 96.8492
MEAN_ANOMALY   = 263.2869

EPHEMERIS_TYPE = 0
CLASSIFICATION_TYPE = U
NORAD_CAT_ID   = 67611
ELEMENT_SET_NO = 999
REV_AT_EPOCH   = 423
BSTAR          = .13621E-2
MEAN_MOTION_DOT = .270364E-2
MEAN_MOTION_DDOT = 0

CCSDS_OMM_VERS = 2.0
CREATION_DATE  = 
ORIGINATOR     = 

OBJECT_NAME    = STARLINK-36407
OBJECT_ID      = 2026-018Z
CENTER_NAME    = EARTH
REF_FRAME      = TEME
TIME_SYSTEM    = UTC
MEAN_ELEMENT_THEORY = SGP/SGP4

EPOCH          = 2026-02-18T04:00:01.999584
MEAN_MOTION    = 15.77802485
ECCENTRICITY   = .000197
INCLINATION    = 97.2840
RA_OF_ASC_NODE = 114.0637
ARG_OF_PERICENTER = 70.8510
MEAN_ANOMALY   = 84.6539

EPHEMERIS_TYPE = 0
CLASSIFICATION_TYPE = U
NORAD_CAT_ID   = 67612
ELEMENT_SET_NO = 999
REV_AT_EPOCH   = 431
BSTAR          = -.13111E-1
MEAN_MOTION_DOT = -.1912057E-1
MEAN_MOTION_DDOT = 0

CCSDS_OMM_VERS = 2.0
CREATION_DATE  = 
ORIGINATOR     = 

OBJECT_NAME    = STARLINK-36597
OBJECT_ID      = 2026-018AA
CENTER_NAME    = EARTH
REF_FRAME      = TEME
TIME_SYSTEM    = UTC
MEAN_ELEMENT_THEORY = SGP/SGP4

EPOCH          = 2026-02-18T03:18:13.766112
MEAN_MOTION    = 15.80870518
ECCENTRICITY   = .0001301
INCLINATION    = 97.2837
RA_OF_ASC_NODE = 114.0341
ARG_OF_PERICENTER = 81.9960
MEAN_ANOMALY   = 278.1456

EPHEMERIS_TYPE = 0
CLASSIFICATION_TYPE = U
NORAD_CAT_ID   = 67613
ELEMENT_SET_NO = 999
REV_AT_EPOCH   = 423
BSTAR          = .71586E-3
MEAN_MOTION_DOT = .13954E-2
MEAN_MOTION_DDOT = 0

CCSDS_OMM_VERS = 2.0
CREATION_DATE  = 
ORIGINATOR     = 

OBJECT_NAME    = NEONSAT-1A
OBJECT_ID      = 2026-019A
CENTER_NAME    = EARTH
REF_FRAME      = TEME
TIME_SYSTEM    = UTC
MEAN_ELEMENT_THEORY = SGP/SGP4

EPOCH          = 2026-02-17T20:51:25.180416
MEAN_MOTION    = 15.07621014
ECCENTRICITY   = .0012087
INCLINATION    = 97.4103
RA_OF_ASC_NODE = 173.1592
ARG_OF_PERICENTER = 238.6168
MEAN_ANOMALY   = 121.3879

EPHEMERIS_TYPE = 0
CLASSIFICATION_TYPE = U
NORAD_CAT_ID   = 67614
ELEMENT_SET_NO = 999
REV_AT_EPOCH   = 283
BSTAR          = .23135E-3
MEAN_MOTION_DOT = .3467E-4
MEAN_MOTION_DDOT = 0

CCSDS_OMM_VERS = 2.0
CREATION_DATE  = 
ORIGINATOR     = 

OBJECT_NAME    = ELECTRON KICK STAGE R/B
OBJECT_ID      = 2026-019C
CENTER_NAME    = EARTH
REF_FRAME      = TEME
TIME_SYSTEM    = UTC
MEAN_ELEMENT_THEORY = SGP/SGP4

EPOCH          = 2026-02-17T18:17:36.782592
MEAN_MOTION    = 15.66392022
ECCENTRICITY   = .01682778
INCLINATION    = 97.4041
RA_OF_ASC_NODE = 174.5200
ARG_OF_PERICENTER = 194.7657
MEAN_ANOMALY   = 164.8658

EPHEMERIS_TYPE = 0
CLASSIFICATION_TYPE = U
NORAD_CAT_ID   = 67616
ELEMENT_SET_NO = 999
REV_AT_EPOCH   = 291
BSTAR          = .18990564E-2
MEAN_MOTION_DOT = .433789E-2
MEAN_MOTION_DDOT = .56733954E-4

CCSDS_OMM_VERS = 2.0
CREATION_DATE  = 
ORIGINATOR     = 

OBJECT_NAME    = STARLINK-36548
OBJECT_ID      = 2026-020A
CENTER_NAME    = EARTH
REF_FRAME      = TEME
TIME_SYSTEM    = UTC
MEAN_ELEMENT_THEORY = SGP/SGP4

EPOCH          = 2026-02-17T23:26:31.147296
MEAN_MOTION    = 15.76407503
ECCENTRICITY   = .0002073
INCLINATION    = 42.9968
RA_OF_ASC_NODE = 262.0913
ARG_OF_PERICENTER = 283.0775
MEAN_ANOMALY   = 76.9863

EPHEMERIS_TYPE = 0
CLASSIFICATION_TYPE = U
NORAD_CAT_ID   = 67617
ELEMENT_SET_NO = 999
REV_AT_EPOCH   = 297
BSTAR          = .14997E-2
MEAN_MOTION_DOT = .251571E-2
MEAN_MOTION_DDOT = 0

CCSDS_OMM_VERS = 2.0
CREATION_DATE  = 
ORIGINATOR     = 

OBJECT_NAME    = STARLINK-36601
OBJECT_ID      = 2026-020B
CENTER_NAME    = EARTH
REF_FRAME      = TEME
TIME_SYSTEM    = UTC
MEAN_ELEMENT_THEORY = SGP/SGP4

EPOCH          = 2026-02-18T00:15:23.857920
MEAN_MOTION    = 15.82078652
ECCENTRICITY   = .0002353
INCLINATION    = 42.9964
RA_OF_ASC_NODE = 261.4679
ARG_OF_PERICENTER = 236.7325
MEAN_ANOMALY   = 123.3321

EPHEMERIS_TYPE = 0
CLASSIFICATION_TYPE = U
NORAD_CAT_ID   = 67618
ELEMENT_SET_NO = 999
REV_AT_EPOCH   = 298
BSTAR          = .11818E-2
MEAN_MOTION_DOT = .256594E-2
MEAN_MOTION_DDOT = 0

CCSDS_OMM_VERS = 2.0
CREATION_DATE  = 
ORIGINATOR     = 

OBJECT_NAME    = STARLINK-36119
OBJECT_ID      = 2026-020C
CENTER_NAME    = EARTH
REF_FRAME      = TEME
TIME_SYSTEM    = UTC
MEAN_ELEMENT_THEORY = SGP/SGP4

EPOCH          = 2026-02-18T00:54:36.108288
MEAN_MOTION    = 15.76432021
ECCENTRICITY   = .0001947
INCLINATION    = 42.9969
RA_OF_ASC_NODE = 261.6876
ARG_OF_PERICENTER = 258.7078
MEAN_ANOMALY   = 101.3573

EPHEMERIS_TYPE = 0
CLASSIFICATION_TYPE = U
NORAD_CAT_ID   = 67619
ELEMENT_SET_NO = 999
REV_AT_EPOCH   = 298
BSTAR          = .1432E-2
MEAN_MOTION_DOT = .240127E-2
MEAN_MOTION_DDOT = 0

CCSDS_OMM_VERS = 2.0
CREATION_DATE  = 
ORIGINATOR     = 

OBJECT_NAME    = STARLINK-36607
OBJECT_ID      = 2026-020D
CENTER_NAME    = EARTH
REF_FRAME      = TEME
TIME_SYSTEM    = UTC
MEAN_ELEMENT_THEORY = SGP/SGP4

EPOCH          = 2026-02-17T22:41:59.793216
MEAN_MOTION    = 15.82415698
ECCENTRICITY   = .0002739
INCLINATION    = 42.9966
RA_OF_ASC_NODE = 261.8408
ARG_OF_PERICENTER = 285.0564
MEAN_ANOMALY   = 75.0004

EPHEMERIS_TYPE = 0
CLASSIFICATION_TYPE = U
NORAD_CAT_ID   = 67620
ELEMENT_SET_NO = 999
REV_AT_EPOCH   = 297
BSTAR          = .27681E-2
MEAN_MOTION_DOT = .639263E-2
MEAN_MOTION_DDOT = 0

